CZ-4B R/B               
1 28415U 04035C   25303.04570659  .00010896  00000+0  41405-3 0  9991
2 28415  97.3677 333.9903 0035860  72.6058 287.9097 15.26361256159960
CZ-2C R/B               
1 28480U 04046B   25303.27328995  .00000223  00000+0  97858-4 0  9991
2 28480  98.1945 221.3625 0139463 180.0427 180.0767 14.26911989 89904
ARIANE 5 R/B            
1 28499U 04049H   25303.32533307  .00001238  00000+0  14341-3 0  9997
2 28499  98.2507 102.0611 0085783  54.0748 306.8387 14.84880484126446
CZ-2D R/B               
1 28738U 05024B   25302.99958763  .00034741  00000+0  61307-3 0  9995
2 28738  97.3685 309.3860 0007650 126.5360 233.6597 15.50278302119478
ALOS (DAICHI)           
1 28931U 06002A   25303.31785449  .00002555  00000+0  44153-3 0  9991
2 28931  98.1018 255.1347 0001690  54.3887 305.7476 14.69268535 54336
H-2A R/B                
1 28932U 06002B   25303.29598762  .00011522  00000+0  62539-3 0  9991
2 28932  98.2287  74.5483 0055129 325.2146  34.5483 15.13405351 74699
RESURS-DK 1             
1 29228U 06021A   25303.16655520  .00004202  00000+0  25155-3 0  9993
2 29228  69.9333 214.4108 0007095 294.8507  65.1920 15.11803742 67798
CZ-4B R/B               
1 29507U 06046C   25303.12702877  .00007240  00000+0  38310-3 0  9996
2 29507  97.5808 343.3864 0034468   2.4006 357.7385 15.15232839 40269
CZ-2C R/B               
1 31114U 07010B   25303.31966568  .00000202  00000+0  11219-3 0  9995
2 31114  98.3948  58.1624 0058145 314.0551  45.5846 14.20183819961219
COSMO-SKYMED 1          
1 31598U 07023A   25303.29842781  .00003057  00000+0  28287-3 0  9996
2 31598  97.8868 128.4245 0001111  79.7738 280.3608 14.95296156995407
COSMOS 2428             
1 31792U 07029A   25303.19765129 -.00000215  00000+0 -89540-4 0  9992
2 31792  70.9364 117.2928 0001751 115.8972 244.2330 14.12893296945663
SL-16 R/B               
1 31793U 07029B   25303.14168322 -.00000076  00000+0 -14613-4 0  9994
2 31793  70.9738  86.7993 0002479 261.6334 271.1447 14.14803664946909
KORONAS-FOTON           
1 33504U 09003A   25303.29853816  .00019107  00000+0  48045-3 0  9993
2 33504  82.4323  51.0596 0010638 264.8322  95.1710 15.39763766925653
CZ-2C R/B               
1 37731U 11030B   25303.29307025  .00002379  00000+0  30858-3 0  9994
2 37731  97.8339 258.3866 0054535  55.6621  77.9744 14.80666053770794
H-2A R/B                
1 38341U 12025E   25303.31333479  .00005044  00000+0  46975-3 0  9991
2 38341  98.4521 255.2284 0046382  20.8447 339.4649 14.93975792728748
SHIJIAN-16 (SJ-16)      
1 39358U 13057A   25303.34878471  .00001829  00000+0  18404-3 0  9998
2 39358  74.9714  71.7378 0016012  67.3681 292.9199 14.91742225652063
SL-4 R/B                
1 39679U 14021B   25303.02038444  .00021645  00000+0  53243-3 0  9997
2 39679  51.6069 252.8101 0105180 348.6539  11.2073 15.34978099636177
ALOS-2                  
1 39766U 14029A   25303.25504312  .00002950  00000+0  40194-3 0  9998
2 39766  97.9227  38.7196 0001128  98.8533 261.2807 14.79455989617585
YAOGAN-29               
1 41038U 15069A   25303.29571343  .00000662  00000+0  88609-4 0  9992
2 41038  98.0270 326.3177 0002744  71.3012 288.8498 14.82809405536556
ASTRO-H (HITOMI)        
1 41337U 16012A   25303.17006437  .00004431  00000+0  26787-3 0  9993
2 41337  30.9984 118.1654 0009847  99.4776 260.6975 15.08954880532495
HXMT (HUIYAN)           
1 42758U 17034A   25303.30338062  .00007865  00000+0  41429-3 0  9997
2 42758  43.0157  20.5431 0032034 132.7568 227.5983 15.15528302462748
CZ-2C R/B               
1 43521U 18054D   25302.83986730  .00089814  00000+0  86238-3 0  9998
2 43521  35.1347 116.4776 0025569  77.9021 282.4572 15.64919798408152
SAOCOM 1A               
1 43641U 18076A   25302.92504615  .00000690  00000+0  93182-4 0  9995
2 43641  97.8876 127.9806 0001422  85.8801 274.2575 14.82171502381990
H-2A R/B                
1 43682U 18084L   25303.24957996  .00025253  00000+0  72888-3 0  9990
2 43682  98.8820 128.3904 0029445 113.6801 246.7533 15.35251192385720
SAOCOM 1B               
1 46265U 20059A   25303.29389340  .00000704  00000+0  94913-4 0  9990
2 46265  97.8869 127.4471 0001355  88.1781 271.9588 14.82163259279431
CSS (TIANHE)            
1 48274U 21035A   25303.03912859  .00041478  00000+0  50010-3 0  9998
2 48274  41.4666 282.1411 0007097 291.0843  68.9237 15.59974083257722
COSMOS 2550             
1 48865U 21056A   25303.75426200  .00000738  00000+0  28247-4 0  9998
2 48865  67.1406  74.0113 0008403 269.9185  90.1007 15.33832526243530
CZ-2C R/B               
1 52794U 22058K   25303.07719997  .00033352  00000+0  65689-3 0  9998
2 52794  50.1914 265.7122 0050693  16.3935 343.8657 15.45469246189879
GSLV R/B                
1 54149U 22138AN  25303.24215913  .00004451  00000+0  39555-3 0  9992
2 54149  87.3854 210.0284 0018982 265.9491  93.9570 14.95767940164423
XRISM                   
1 57800U 23137A   25303.00850720  .00008746  00000+0  52410-3 0  9990
2 57800  31.0030  47.7483 0008211 164.1259 195.9638 15.09650225118019
ACS3                    
1 59588U 24077B   25303.16264403  .00020286  00000+0  18513-1 0  9990
2 59588  97.3396 268.4105 0031718  30.6767 329.6239 13.82885479 76113
